STARLINK-36072          
1 66856U 25281J   25360.25003472  .00040164  00000+0  68828-3 0  9997
2 66856  43.0002  40.6142 0000889 249.4092 209.9210 15.50524153  3551
STARLINK-36083          
1 66857U 25281K   25360.25003472  .00039592  00000+0  67854-3 0  9999
2 66857  43.0002  40.6095 0001003 243.2384 218.0151 15.50526648  3550
STARLINK-35118          
1 66858U 25281L   25360.25003472  .00041423  00000+0  70947-3 0  9993
2 66858  43.0001  40.6045 0001094 241.3906 221.7817 15.50527464  3348
STARLINK-35646          
1 66859U 25281M   25360.25003472  .00034529  00000+0  59273-3 0  9992
2 66859  43.0003  40.6002 0001141 243.8759 221.2583 15.50534156  3554
STARLINK-35987          
1 66860U 25281N   25360.25003472  .00051289  00000+0  87595-3 0  9994
2 66860  43.0001  40.5765 0001438 273.3716 201.3471 15.50527480  3567
STARLINK-35991          
1 66861U 25281P   25360.25003472  .00037389  00000+0  64118-3 0  9996
2 66861  43.0002  40.5906 0000901 264.9699 203.9981 15.50531614  3564
STARLINK-35974          
1 66862U 25281Q   25360.25003472  .00039825  00000+0  68262-3 0  9998
2 66862  43.0001  40.5951 0001018 248.3463 218.6554 15.50521385  3450
STARLINK-36134          
1 66863U 25281R   25360.25003472  .00033395  00000+0  57351-3 0  9992
2 66863  43.0003  40.5862 0000956 272.7660 198.1151 15.50535993  3561
STARLINK-36070          
1 66864U 25281S   25360.25003472  .00041472  00000+0  71071-3 0  9993
2 66864  43.0001  40.5805 0001088 248.8129 223.9293 15.50511514  3598
STARLINK-36117          
1 66865U 25281T   25360.25003472  .00037540  00000+0  64366-3 0  9994
2 66865  43.0003  40.5717 0001306 274.5757 202.0545 15.50534790  3565
STARLINK-36126          
1 66866U 25281U   25360.25003472  .00043119  00000+0  73852-3 0  9994
2 66866  43.0000  40.5664 0001054 243.7909 234.7086 15.50512425  3597
STARLINK-36101          
1 66867U 25281V   25360.25003472  .00050086  00000+0  85609-3 0  9999
2 66867  43.0001  40.5627 0001087 234.1565 246.3388 15.50514094  3392
