CCSDS_OMM_VERS = 2.0
CREATION_DATE  = 
ORIGINATOR     = 

OBJECT_NAME    = STARLINK-36072
OBJECT_ID      = 2025-281J
CENTER_NAME    = EARTH
REF_FRAME      = TEME
TIME_SYSTEM    = UTC
MEAN_ELEMENT_THEORY = SGP/SGP4

EPOCH          = 2025-12-26T06:00:02.999808
MEAN_MOTION    = 15.50524153
ECCENTRICITY   = .00008893
INCLINATION    = 43.0002
RA_OF_ASC_NODE = 40.6142
ARG_OF_PERICENTER = 249.4092
MEAN_ANOMALY   = 209.9210

EPHEMERIS_TYPE = 0
CLASSIFICATION_TYPE = U
NORAD_CAT_ID   = 66856
ELEMENT_SET_NO = 999
REV_AT_EPOCH   = 355
BSTAR          = .68827509E-3
MEAN_MOTION_DOT = .40164E-3
MEAN_MOTION_DDOT = 0

CCSDS_OMM_VERS = 2.0
CREATION_DATE  = 
ORIGINATOR     = 

OBJECT_NAME    = STARLINK-36083
OBJECT_ID      = 2025-281K
CENTER_NAME    = EARTH
REF_FRAME      = TEME
TIME_SYSTEM    = UTC
MEAN_ELEMENT_THEORY = SGP/SGP4

EPOCH          = 2025-12-26T06:00:02.999808
MEAN_MOTION    = 15.50526648
ECCENTRICITY   = .00010032
INCLINATION    = 43.0002
RA_OF_ASC_NODE = 40.6095
ARG_OF_PERICENTER = 243.2384
MEAN_ANOMALY   = 218.0151

EPHEMERIS_TYPE = 0
CLASSIFICATION_TYPE = U
NORAD_CAT_ID   = 66857
ELEMENT_SET_NO = 999
REV_AT_EPOCH   = 355
BSTAR          = .67854133E-3
MEAN_MOTION_DOT = .39592E-3
MEAN_MOTION_DDOT = 0

CCSDS_OMM_VERS = 2.0
CREATION_DATE  = 
ORIGINATOR     = 

OBJECT_NAME    = STARLINK-35118
OBJECT_ID      = 2025-281L
CENTER_NAME    = EARTH
REF_FRAME      = TEME
TIME_SYSTEM    = UTC
MEAN_ELEMENT_THEORY = SGP/SGP4

EPOCH          = 2025-12-26T06:00:02.999808
MEAN_MOTION    = 15.50527464
ECCENTRICITY   = .00010945
INCLINATION    = 43.0001
RA_OF_ASC_NODE = 40.6045
ARG_OF_PERICENTER = 241.3906
MEAN_ANOMALY   = 221.7817

EPHEMERIS_TYPE = 0
CLASSIFICATION_TYPE = U
NORAD_CAT_ID   = 66858
ELEMENT_SET_NO = 999
REV_AT_EPOCH   = 334
BSTAR          = .70947329E-3
MEAN_MOTION_DOT = .41423E-3
MEAN_MOTION_DDOT = 0

CCSDS_OMM_VERS = 2.0
CREATION_DATE  = 
ORIGINATOR     = 

OBJECT_NAME    = STARLINK-35646
OBJECT_ID      = 2025-281M
CENTER_NAME    = EARTH
REF_FRAME      = TEME
TIME_SYSTEM    = UTC
MEAN_ELEMENT_THEORY = SGP/SGP4

EPOCH          = 2025-12-26T06:00:02.999808
MEAN_MOTION    = 15.50534156
ECCENTRICITY   = .00011416
INCLINATION    = 43.0003
RA_OF_ASC_NODE = 40.6002
ARG_OF_PERICENTER = 243.8759
MEAN_ANOMALY   = 221.2583

EPHEMERIS_TYPE = 0
CLASSIFICATION_TYPE = U
NORAD_CAT_ID   = 66859
ELEMENT_SET_NO = 999
REV_AT_EPOCH   = 355
BSTAR          = .59273456E-3
MEAN_MOTION_DOT = .34529E-3
MEAN_MOTION_DDOT = 0

CCSDS_OMM_VERS = 2.0
CREATION_DATE  = 
ORIGINATOR     = 

OBJECT_NAME    = STARLINK-35987
OBJECT_ID      = 2025-281N
CENTER_NAME    = EARTH
REF_FRAME      = TEME
TIME_SYSTEM    = UTC
MEAN_ELEMENT_THEORY = SGP/SGP4

EPOCH          = 2025-12-26T06:00:02.999808
MEAN_MOTION    = 15.50527480
ECCENTRICITY   = .00014386
INCLINATION    = 43.0001
RA_OF_ASC_NODE = 40.5765
ARG_OF_PERICENTER = 273.3716
MEAN_ANOMALY   = 201.3471

EPHEMERIS_TYPE = 0
CLASSIFICATION_TYPE = U
NORAD_CAT_ID   = 66860
ELEMENT_SET_NO = 999
REV_AT_EPOCH   = 356
BSTAR          = .87595262E-3
MEAN_MOTION_DOT = .51289E-3
MEAN_MOTION_DDOT = 0

CCSDS_OMM_VERS = 2.0
CREATION_DATE  = 
ORIGINATOR     = 

OBJECT_NAME    = STARLINK-35991
OBJECT_ID      = 2025-281P
CENTER_NAME    = EARTH
REF_FRAME      = TEME
TIME_SYSTEM    = UTC
MEAN_ELEMENT_THEORY = SGP/SGP4

EPOCH          = 2025-12-26T06:00:02.999808
MEAN_MOTION    = 15.50531614
ECCENTRICITY   = .00009014
INCLINATION    = 43.0002
RA_OF_ASC_NODE = 40.5906
ARG_OF_PERICENTER = 264.9699
MEAN_ANOMALY   = 203.9981

EPHEMERIS_TYPE = 0
CLASSIFICATION_TYPE = U
NORAD_CAT_ID   = 66861
ELEMENT_SET_NO = 999
REV_AT_EPOCH   = 356
BSTAR          = .64117818E-3
MEAN_MOTION_DOT = .37389E-3
MEAN_MOTION_DDOT = 0

CCSDS_OMM_VERS = 2.0
CREATION_DATE  = 
ORIGINATOR     = 

OBJECT_NAME    = STARLINK-35974
OBJECT_ID      = 2025-281Q
CENTER_NAME    = EARTH
REF_FRAME      = TEME
TIME_SYSTEM    = UTC
MEAN_ELEMENT_THEORY = SGP/SGP4

EPOCH          = 2025-12-26T06:00:02.999808
MEAN_MOTION    = 15.50521385
ECCENTRICITY   = .00010185
INCLINATION    = 43.0001
RA_OF_ASC_NODE = 40.5951
ARG_OF_PERICENTER = 248.3463
MEAN_ANOMALY   = 218.6554

EPHEMERIS_TYPE = 0
CLASSIFICATION_TYPE = U
NORAD_CAT_ID   = 66862
ELEMENT_SET_NO = 999
REV_AT_EPOCH   = 345
BSTAR          = .68261821E-3
MEAN_MOTION_DOT = .39825E-3
MEAN_MOTION_DDOT = 0

CCSDS_OMM_VERS = 2.0
CREATION_DATE  = 
ORIGINATOR     = 

OBJECT_NAME    = STARLINK-36134
OBJECT_ID      = 2025-281R
CENTER_NAME    = EARTH
REF_FRAME      = TEME
TIME_SYSTEM    = UTC
MEAN_ELEMENT_THEORY = SGP/SGP4

EPOCH          = 2025-12-26T06:00:02.999808
MEAN_MOTION    = 15.50535993
ECCENTRICITY   = .00009568
INCLINATION    = 43.0003
RA_OF_ASC_NODE = 40.5862
ARG_OF_PERICENTER = 272.7660
MEAN_ANOMALY   = 198.1151

EPHEMERIS_TYPE = 0
CLASSIFICATION_TYPE = U
NORAD_CAT_ID   = 66863
ELEMENT_SET_NO = 999
REV_AT_EPOCH   = 356
BSTAR          = .57351263E-3
MEAN_MOTION_DOT = .33395E-3
MEAN_MOTION_DDOT = 0

CCSDS_OMM_VERS = 2.0
CREATION_DATE  = 
ORIGINATOR     = 

OBJECT_NAME    = STARLINK-36070
OBJECT_ID      = 2025-281S
CENTER_NAME    = EARTH
REF_FRAME      = TEME
TIME_SYSTEM    = UTC
MEAN_ELEMENT_THEORY = SGP/SGP4

EPOCH          = 2025-12-26T06:00:02.999808
MEAN_MOTION    = 15.50511514
ECCENTRICITY   = .00010884
INCLINATION    = 43.0001
RA_OF_ASC_NODE = 40.5805
ARG_OF_PERICENTER = 248.8129
MEAN_ANOMALY   = 223.9293

EPHEMERIS_TYPE = 0
CLASSIFICATION_TYPE = U
NORAD_CAT_ID   = 66864
ELEMENT_SET_NO = 999
REV_AT_EPOCH   = 359
BSTAR          = .71070517E-3
MEAN_MOTION_DOT = .41472E-3
MEAN_MOTION_DDOT = 0

CCSDS_OMM_VERS = 2.0
CREATION_DATE  = 
ORIGINATOR     = 

OBJECT_NAME    = STARLINK-36117
OBJECT_ID      = 2025-281T
CENTER_NAME    = EARTH
REF_FRAME      = TEME
TIME_SYSTEM    = UTC
MEAN_ELEMENT_THEORY = SGP/SGP4

EPOCH          = 2025-12-26T06:00:02.999808
MEAN_MOTION    = 15.50534790
ECCENTRICITY   = .00013061
INCLINATION    = 43.0003
RA_OF_ASC_NODE = 40.5717
ARG_OF_PERICENTER = 274.5757
MEAN_ANOMALY   = 202.0545

EPHEMERIS_TYPE = 0
CLASSIFICATION_TYPE = U
NORAD_CAT_ID   = 66865
ELEMENT_SET_NO = 999
REV_AT_EPOCH   = 356
BSTAR          = .6436581E-3
MEAN_MOTION_DOT = .3754E-3
MEAN_MOTION_DDOT = 0

CCSDS_OMM_VERS = 2.0
CREATION_DATE  = 
ORIGINATOR     = 

OBJECT_NAME    = STARLINK-36126
OBJECT_ID      = 2025-281U
CENTER_NAME    = EARTH
REF_FRAME      = TEME
TIME_SYSTEM    = UTC
MEAN_ELEMENT_THEORY = SGP/SGP4

EPOCH          = 2025-12-26T06:00:02.999808
MEAN_MOTION    = 15.50512425
ECCENTRICITY   = .00010548
INCLINATION    = 43.0000
RA_OF_ASC_NODE = 40.5664
ARG_OF_PERICENTER = 243.7909
MEAN_ANOMALY   = 234.7086

EPHEMERIS_TYPE = 0
CLASSIFICATION_TYPE = U
NORAD_CAT_ID   = 66866
ELEMENT_SET_NO = 999
REV_AT_EPOCH   = 359
BSTAR          = .73851963E-3
MEAN_MOTION_DOT = .43119E-3
MEAN_MOTION_DDOT = 0

CCSDS_OMM_VERS = 2.0
CREATION_DATE  = 
ORIGINATOR     = 

OBJECT_NAME    = STARLINK-36101
OBJECT_ID      = 2025-281V
CENTER_NAME    = EARTH
REF_FRAME      = TEME
TIME_SYSTEM    = UTC
MEAN_ELEMENT_THEORY = SGP/SGP4

EPOCH          = 2025-12-26T06:00:02.999808
MEAN_MOTION    = 15.50514094
ECCENTRICITY   = .00010872
INCLINATION    = 43.0001
RA_OF_ASC_NODE = 40.5627
ARG_OF_PERICENTER = 234.1565
MEAN_ANOMALY   = 246.3388

EPHEMERIS_TYPE = 0
CLASSIFICATION_TYPE = U
NORAD_CAT_ID   = 66867
ELEMENT_SET_NO = 999
REV_AT_EPOCH   = 339
BSTAR          = .8560945E-3
MEAN_MOTION_DOT = .50086E-3
MEAN_MOTION_DDOT = 0

